CORAL                   
1 67684U 98067YA  26085.97935447  .00092043  00000+0  12287-2 0  9999
2 67684  51.6319 345.1142 0012549 237.8521 122.1254 15.57223056  7489
GXIBA-1                 
1 67685U 98067YB  26085.96881886  .00046603  00000+0  71441-3 0  9995
2 67685  51.6322 345.7931 0011840 245.2772 114.6986 15.53770911  7470
UITMSAT-2               
1 67686U 98067YC  26085.95531808  .00059955  00000+0  88696-3 0  9995
2 67686  51.6327 345.7061 0008939 216.3568 143.6817 15.54673123  7470
HMU-SAT2                
1 67687U 98067YD  26085.97344486  .00047602  00000+0  73714-3 0  9993
2 67687  51.6328 345.8268 0008473 219.6205 140.4167 15.53521271  7398
LEOPARD                 
1 67688U 98067YE  26085.96147630  .00053164  00000+0  79992-3 0  9999
2 67688  51.6331 345.7466 0008649 216.7548 143.2850 15.54263639  7397
CREW DRAGON 12          
1 67796U 26031A   26085.80952179  .00012890  00000+0  24531-3 0  9996
2 67796  51.6341 347.7277 0006205 236.0994 123.9405 15.48566257558922
PROGRESS-MS 33          
1 68319U 26058A   26085.80952179  .00012890  00000+0  24531-3 0  9997
2 68319  51.6341 347.7277 0006205 236.0994 123.9405 15.48566257   331
